GLOBALSTAR M094         
1 39074U 13005C   24235.81133220 -.00000095  00000+0  49871-4 0  9995
2 39074  51.9981  10.5826 0000634  76.1650 283.9288 12.62267002534693
GLOBALSTAR M096         
1 39075U 13005D   24235.90376299 -.00000100  00000+0  22977-4 0  9996
2 39075  52.0076  58.5832 0000668  55.3942 304.6987 12.62269031533623
GLOBALSTAR M078         
1 39076U 13005E   24236.11483275  .00000013  00000+0  65299-3 0  9999
2 39076  51.9868 142.8565 0000424 235.4327 124.6500 12.62275664532482
GLOBALSTAR M095         
1 39077U 13005F   24236.14121760 -.00000059  00000+0  25238-3 0  9991
2 39077  51.9793 140.1211 0000447 338.5652  21.5196 12.62263560532499
GLOBALSTAR M087         
1 52888U 22064A   24235.53720263 -.00000058  00000+0  13370-3 0  9999
2 52888  51.9775 337.0212 0009679 169.4486 190.6619 13.37582529106402
